NORAD_CAT_ID,OBJECT_NAME,OBJECT_TYPE,EPOCH,MEAN_MOTION,ECCENTRICITY,INCLINATION,RA_OF_ASC_NODE,ARG_OF_PERICENTER,MEAN_ANOMALY,BSTAR,MEAN_MOTION_DOT,MEAN_MOTION_DDOT,TLE_LINE0,TLE_LINE1,TLE_LINE2,SEMIMAJOR_AXIS,PERIOD,APOGEE,PERIGEE,DECAYED
55950.0,STARLINK-5911,PAYLOAD,2024-03-24 13:47:22,14.98327488,0.0003037,69.9981,267.6001,268.7579,91.3232,-6.8563e-05,-9.11e-06,0.0,0 STARLINK-5911,1 55950U 23037AN  24084.57456113 -.00000911  00000-0 -68563-4 0  9994,2 55950  69.9981 267.6001 0003037 268.7579  91.3232 14.98327488 57351,6950.201,96.107,574.176,569.955,0.0
55950.0,STARLINK-5911,PAYLOAD,2024-03-24 21:48:02,14.98331454,0.0002967,69.9982,266.7588,263.4046,96.6776,-2.5265e-05,-3.94e-06,0.0,0 STARLINK-5911,1 55950U 23037AN  24084.90835762 -.00000394  00000-0 -25265-4 0  9999,2 55950  69.9982 266.7588 0002967 263.4046  96.6776 14.98331454 57746,6950.188,96.107,574.116,569.991,0.0
55950.0,STARLINK-5911,PAYLOAD,2024-03-25 21:50:02,14.98334577,0.0002995,69.9989,264.2348,270.4212,89.6604,0.00010007,1.101e-05,0.0,0 STARLINK-5911,1 55950U 23037AN  24085.90975159  .00001101  00000-0  10007-3 0  9997,2 55950  69.9989 264.2348 0002995 270.4212  89.6604 14.98334577 57554,6950.179,96.107,574.125,569.962,0.0
55950.0,STARLINK-5911,PAYLOAD,2024-03-26 13:51:24,14.98323592,0.0002928,70.0,262.5525,271.713,88.3694,4.4167e-06,-4e-07,0.0,0 STARLINK-5911,1 55950U 23037AN  24086.57736125 -.00000040  00000-0  44167-5 0  9997,2 55950  70.0000 262.5525 0002928 271.7130  88.3694 14.98323592 57996,6950.213,96.107,574.113,570.043,0.0
55950.0,STARLINK-5911,PAYLOAD,2024-03-26 21:52:04,14.98324452,0.0002597,70.0001,261.7103,263.6403,96.446,5.9086e-06,-2.2e-07,0.0,0 STARLINK-5911,1 55950U 23037AN  24086.91116156 -.00000022  00000-0  59086-5 0  9997,2 55950  70.0001 261.7103 0002597 263.6403  96.4460 14.98324452 57701,6950.21,96.107,573.88,570.27,0.0
55950.0,STARLINK-5911,PAYLOAD,2024-03-27 13:53:24,14.98334939,0.0002736,69.9997,260.0266,267.4703,92.6143,-0.00012102,-1.537e-05,0.0,0 STARLINK-5911,1 55950U 23037AN  24087.57875859 -.00001537  00000-0 -12102-3 0  9991,2 55950  69.9997 260.0266 0002736 267.4703  92.6143 14.98334939 57802,6950.178,96.107,573.944,570.141,0.0
55950.0,STARLINK-5911,PAYLOAD,2024-03-27 20:17:56,14.98332663,0.0002686,69.9999,259.3531,270.684,89.4011,-3.9275e-05,-5.62e-06,0.0,0 STARLINK-5911,1 55950U 23037AN  24087.84579743 -.00000562  00000-0 -39275-4 0  9992,2 55950  69.9999 259.3531 0002686 270.6840  89.4011 14.98332663 58184,6950.185,96.107,573.916,570.183,0.0
55950.0,STARLINK-5911,PAYLOAD,2024-03-27 21:54:04,14.98333173,0.0002917,69.9998,259.1849,273.4042,86.6783,-2.7508e-05,-4.21e-06,0.0,0 STARLINK-5911,1 55950U 23037AN  24087.91255656 -.00000421  00000-0 -27508-4 0  9994,2 55950  69.9998 259.1849 0002917 273.4042  86.6783 14.98333173 57850,6950.183,96.107,574.075,570.021,0.0
55950.0,STARLINK-5911,PAYLOAD,2024-03-28 12:19:17,14.98329268,0.0002971,69.9995,257.6702,268.9648,91.1171,4.7299e-05,4.71e-06,0.0,0 STARLINK-5911,1 55950U 23037AN  24088.51339612  .00000471  00000-0  47299-4 0  9998,2 55950  69.9995 257.6702 0002971 268.9648  91.1171 14.98329268 57941,6950.195,96.107,574.125,569.995,0.0
55950.0,STARLINK-5911,PAYLOAD,2024-03-28 17:07:41,14.98330582,0.0002972,69.9996,257.1654,267.7036,92.3783,5.9263e-05,6.14e-06,0.0,0 STARLINK-5911,1 55950U 23037AN  24088.71367482  .00000614  00000-0  59263-4 0  9999,2 55950  69.9996 257.1654 0002972 267.7036  92.3783 14.98330582 57978,6950.191,96.107,574.122,569.99,0.0
55950.0,STARLINK-5911,PAYLOAD,2024-03-29 12:21:18,14.98330881,0.0002908,70.0,255.1456,266.8556,93.227,1.5443e-05,9.1e-07,0.0,0 STARLINK-5911,1 55950U 23037AN  24089.51479533  .00000091  00000-0  15443-4 0  9990,2 55950  70.0000 255.1456 0002908 266.8556  93.2270 14.98330881 58436,6950.19,96.107,574.076,570.034,0.0
55950.0,STARLINK-5911,PAYLOAD,2024-03-30 12:23:19,14.98328371,0.0003026,69.9982,252.62,268.6793,91.4019,-2.2732e-05,-3.64e-06,0.0,0 STARLINK-5911,1 55950U 23037AN  24090.51619729 -.00000364  00000-0 -22732-4 0  9999,2 55950  69.9982 252.6200 0003026 268.6793  91.4019 14.98328371 58584,6950.198,96.107,574.166,569.96,0.0
55950.0,STARLINK-5911,PAYLOAD,2024-03-30 13:59:27,14.98328333,0.0003034,69.9994,252.452,269.0509,91.0302,-2.4848e-05,-3.89e-06,0.0,0 STARLINK-5911,1 55950U 23037AN  24090.58295744 -.00000389  00000-0 -24848-4 0  9990,2 55950  69.9994 252.4520 0003034 269.0509  91.0302 14.98328333 58252,6950.198,96.107,574.172,569.954,0.0
55950.0,STARLINK-5911,PAYLOAD,2024-03-30 20:23:59,14.98330065,0.0003063,69.9992,251.778,268.2518,91.829,-4.5588e-05,-6.37e-06,0.0,0 STARLINK-5911,1 55950U 23037AN  24090.84999685 -.00000637  00000-0 -45588-4 0  9994,2 55950  69.9992 251.7780 0003063 268.2518  91.8290 14.98330065 58296,6950.193,96.107,574.187,569.929,0.0
55950.0,STARLINK-5911,PAYLOAD,2024-03-31 12:25:19,14.98333007,0.0003082,69.9992,250.0942,268.0631,92.0175,3.1825e-05,2.87e-06,0.0,0 STARLINK-5911,1 55950U 23037AN  24091.51759208  .00000287  00000-0  31825-4 0  9992,2 55950  69.9992 250.0942 0003082 268.0631  92.0175 14.98333007 58736,6950.184,96.107,574.191,569.907,0.0
55950.0,STARLINK-5911,PAYLOAD,2024-03-31 14:01:27,14.98333191,0.0003083,69.9993,249.9259,268.0494,92.0312,3.3466e-05,3.06e-06,0.0,0 STARLINK-5911,1 55950U 23037AN  24091.58435178  .00000306  00000-0  33466-4 0  9991,2 55950  69.9993 249.9259 0003083 268.0494  92.0312 14.98333191 58404,6950.183,96.107,574.191,569.905,0.0
55950.0,STARLINK-5911,PAYLOAD,2024-03-31 20:26:00,14.98335434,0.0003141,69.9998,249.2538,269.5561,90.5238,5.4241e-05,5.54e-06,0.0,0 STARLINK-5911,1 55950U 23037AN  24091.85138922  .00000554  00000-0  54241-4 0  9997,2 55950  69.9998 249.2538 0003141 269.5561  90.5238 14.98335434 58444,6950.176,96.107,574.224,569.858,0.0
55950.0,STARLINK-5911,PAYLOAD,2024-04-01 12:27:21,14.98322409,0.0003099,69.9999,247.5706,269.5522,90.5282,-3.1567e-05,-4.7e-06,0.0,0 STARLINK-5911,1 55950U 23037AN  24092.51900027 -.00000470  00000-0 -31567-4 0  9999,2 55950  69.9999 247.5706 0003099 269.5522  90.5282 14.98322409 58887,6950.216,96.107,574.235,569.927,0.0
55950.0,STARLINK-5911,PAYLOAD,2024-04-01 14:03:29,14.9832259,0.0003099,70.0,247.4023,269.5513,90.5291,-2.9736e-05,-4.48e-06,0.0,0 STARLINK-5911,1 55950U 23037AN  24092.58576036 -.00000448  00000-0 -29736-4 0  9995,2 55950  70.0000 247.4023 0003099 269.5513  90.5291 14.98322590 58559,6950.216,96.107,574.235,569.927,0.0
55950.0,STARLINK-5911,PAYLOAD,2024-04-02 12:29:22,14.98332244,0.0002996,70.0002,245.0457,270.4767,89.6049,-3.3145e-05,-4.88e-06,0.0,0 STARLINK-5911,1 55950U 23037AN  24093.52039532 -.00000488  00000-0 -33145-4 0  9998,2 55950  70.0002 245.0457 0002996 270.4767  89.6049 14.98332244 59034,6950.186,96.107,574.133,569.969,0.0
55950.0,STARLINK-5911,PAYLOAD,2024-04-02 20:30:02,14.98334103,0.000295,70.0004,244.2045,269.5956,90.4865,-5.2245e-06,-1.55e-06,0.0,0 STARLINK-5911,1 55950U 23037AN  24093.85419279 -.00000155  00000-0 -52245-5 0  9998,2 55950  70.0004 244.2045 0002950 269.5956  90.4865 14.98334103 58748,6950.18,96.107,574.096,569.995,0.0
55950.0,STARLINK-5911,PAYLOAD,2024-04-03 12:31:22,14.98329505,0.0002987,70.0002,242.5211,269.2988,90.7829,3.5086e-05,3.26e-06,0.0,0 STARLINK-5911,1 55950U 23037AN  24094.52179398  .00000326  00000-0  35086-4 0  9999,2 55950  70.0002 242.5211 0002987 269.2988  90.7829 14.98329505 58848,6950.194,96.107,574.135,569.983,0.0
55950.0,STARLINK-5911,PAYLOAD,2024-04-03 18:55:55,14.98331351,0.000298,70.0002,241.848,268.0594,92.0224,5.0967e-05,5.15e-06,0.0,0 STARLINK-5911,1 55950U 23037AN  24094.78883210  .00000515  00000-0  50967-4 0  9997,2 55950  70.0002 241.8480 0002980 268.0594  92.0224 14.98331351 59220,6950.189,96.107,574.125,569.983,0.0
55950.0,STARLINK-5911,PAYLOAD,2024-04-04 15:45:40,14.98327652,0.0002885,70.0007,239.6606,268.6212,91.4617,-4.767e-05,-6.62e-06,0.0,0 STARLINK-5911,1 55950U 23037AN  24095.65671722 -.00000662  00000-0 -47670-4 0  9999,2 55950  70.0007 239.6606 0002885 268.6212  91.4617 14.98327652 59012,6950.2,96.107,574.07,570.06,0.0
55950.0,STARLINK-5911,PAYLOAD,2024-04-04 18:57:56,14.98328687,0.0002867,70.0007,239.3239,268.8359,91.2472,-3.2851e-05,-4.85e-06,0.0,0 STARLINK-5911,1 55950U 23037AN  24095.79023627 -.00000485  00000-0 -32851-4 0  9997,2 55950  70.0007 239.3239 0002867 268.8359  91.2472 14.98328687 59370,6950.197,96.107,574.055,570.069,0.0
55950.0,STARLINK-5911,PAYLOAD,2024-04-05 12:35:24,14.98334785,0.0003014,70.0004,237.472,270.4171,89.6643,8.7651e-06,1.2e-07,0.0,0 STARLINK-5911,1 55950U 23037AN  24096.52459002  .00000012  00000-0  87651-5 0  9992,2 55950  70.0004 237.4720 0003014 270.4171  89.6643 14.98334785 59486,6950.178,96.107,574.138,569.948,0.0
55950.0,STARLINK-5911,PAYLOAD,2024-04-05 14:11:32,14.98334853,0.0003014,70.0004,237.3037,270.419,89.6624,9.9002e-06,2.5e-07,0.0,0 STARLINK-5911,1 55950U 23037AN  24096.59134974  .00000025  00000-0  99002-5 0  9994,2 55950  70.0004 237.3037 0003014 270.4190  89.6624 14.98334853 59156,6950.178,96.107,574.138,569.948,0.0
55950.0,STARLINK-5911,PAYLOAD,2024-04-05 18:59:56,14.98337104,0.0003006,70.0004,236.7985,269.9717,90.1097,3.4278e-05,3.16e-06,0.0,0 STARLINK-5911,1 55950U 23037AN  24096.79162671  .00000316  00000-0  34278-4 0  9997,2 55950  70.0004 236.7985 0003006 269.9717  90.1097 14.98337104 59186,6950.171,96.107,574.125,569.947,0.0
55950.0,STARLINK-5911,PAYLOAD,2024-04-06 09:25:09,14.9832732,0.0003027,70.0,235.282,269.5215,90.5597,2.9953e-05,2.64e-06,0.0,0 STARLINK-5911,1 55950U 23037AN  24097.39247159  .00000264  00000-0  29953-4 0  9995,2 55950  70.0000 235.2820 0003027 269.5215  90.5597 14.98327320 59274,6950.201,96.107,574.17,569.962,0.0
55950.0,STARLINK-5911,PAYLOAD,2024-04-06 15:49:41,14.98327386,0.0003077,70.0006,234.6109,271.6305,88.4501,2.9937e-05,2.64e-06,0.0,0 STARLINK-5911,1 55950U 23037AN  24097.65951203  .00000264  00000-0  29937-4 0  9998,2 55950  70.0006 234.6109 0003077 271.6305  88.4501 14.98327386 59657,6950.201,96.107,574.205,569.927,0.0
